ORBCOMM FM33            
1 25983U 99065D   26011.87945321  .00001098  00000+0  38539-3 0  9993
2 25983  45.0289  86.3348 0006535  25.7227 334.3946 14.40628210366154
ORBCOMM FM36            
1 25984U 99065E   26011.90411910  .00001023  00000+0  37587-3 0  9990
2 25984  45.0373 181.3030 0002649 254.0848 105.9709 14.38801133364477
ORBCOMM FM35            
1 25985U 99065F   26011.82960274  .00000990  00000+0  37327-3 0  9998
2 25985  45.0374 188.3974 0003128   9.7667 350.3242 14.37703466364804
ORBCOMM FM34            
1 25986U 99065G   26011.93633827  .00000824  00000+0  31886-3 0  9992
2 25986  45.0371 188.3712 0003130 308.8235  51.2334 14.37640239364930
ORBCOMM FM38            
1 33060U 08031A   26011.77605775  .00001821  00000+0  25154-3 0  9999
2 33060  48.4402  40.4325 0005064 229.2504 130.7972 14.82426982945680
ORBCOMM FM41            
1 33061U 08031B   26011.53166304  .00001833  00000+0  25565-3 0  9993
2 33061  48.4436  50.1211 0004145 214.1444 299.2910 14.81972541945123
ORBCOMM FM29            
1 33062U 08031C   26011.83891675  .00001756  00000+0  24518-3 0  9994
2 33062  48.4388  56.1774 0005810 212.1227 318.9462 14.82132543945084
ORBCOMM FM39            
1 33063U 08031D   26011.91496207  .00001689  00000+0  24559-3 0  9996
2 33063  48.4397  82.4677 0006446 180.9086 179.1819 14.80553500944710
